{
    "links": {
        "self": "http://www.neowsapp.com/rest/v1/neo/3841845?api_key=iIulBulltgU6a56xZRHN4H3l9WmuAYTsLGpBGhQ2"
    },
    "id": "3841845",
    "neo_reference_id": "3841845",
    "name": "(2019 JR5)",
    "designation": "2019 JR5",
    "nasa_jpl_url": "http://ssd.jpl.nasa.gov/sbdb.cgi?sstr=3841845",
    "absolute_magnitude_h": 24.7,
    "estimated_diameter": {
        "kilometers": {
            "estimated_diameter_min": 0.0305179233,
            "estimated_diameter_max": 0.0682401509
        },
        "meters": {
            "estimated_diameter_min": 30.5179232594,
            "estimated_diameter_max": 68.2401509401
        },
        "miles": {
            "estimated_diameter_min": 0.0189629525,
            "estimated_diameter_max": 0.0424024508
        },
        "feet": {
            "estimated_diameter_min": 100.1244233463,
            "estimated_diameter_max": 223.8850168104
        }
    },
    "is_potentially_hazardous_asteroid": false,
    "close_approach_data": [
        {
            "close_approach_date": "2019-05-13",
            "close_approach_date_full": "2019-May-13 11:15",
            "epoch_date_close_approach": 1557746100000,
            "relative_velocity": {
                "kilometers_per_second": "24.9888635218",
                "kilometers_per_hour": "89959.9086784458",
                "miles_per_hour": "55897.5888118932"
            },
            "miss_distance": {
                "astronomical": "0.0284808132",
                "lunar": "11.0790363348",
                "kilometers": "4260668.990587884",
                "miles": "2647456.9465414392"
            },
            "orbiting_body": "Earth"
        }
    ],
    "orbital_data": {
        "orbit_id": "1",
        "orbit_determination_date": "2019-05-12 11:42:06",
        "first_observation_date": "2019-05-09",
        "last_observation_date": "2019-05-11",
        "data_arc_in_days": 2,
        "observations_used": 43,
        "orbit_uncertainty": "8",
        "minimum_orbit_intersection": ".0101859",
        "jupiter_tisserand_invariant": "4.282",
        "epoch_osculation": "2458613.5",
        "eccentricity": ".7481720326454134",
        "semi_major_axis": "1.448409737311832",
        "inclination": "9.952751500613072",
        "ascending_node_longitude": "47.83091374546038",
        "orbital_period": "636.7010712845499",
        "perihelion_distance": ".3647500800438294",
        "perihelion_argument": "302.905869375935",
        "aphelion_distance": "2.532069394579835",
        "perihelion_time": "2458665.211578437600",
        "mean_anomaly": "330.7615251848442",
        "mean_motion": ".5654144719337395",
        "equinox": "J2000",
        "orbit_class": {
            "orbit_class_type": "APO",
            "orbit_class_description": "Near-Earth asteroid orbits which cross the Earth’s orbit similar to that of 1862 Apollo",
            "orbit_class_range": "a (semi-major axis) > 1.0 AU; q (perihelion) < 1.017 AU"
        }
    },
    "is_sentry_object": false
}